{"type":"Topology","arcs":[[[3314,17456],[64,-18],[69,7],[68,-10],[35,13],[143,-13],[66,7],[34,-12],[30,-38],[-1,-36],[34,-32],[33,-12],[26,-38],[34,-26],[119,-160],[34,-26],[73,-22],[75,-47],[108,-11],[229,51],[75,-10],[35,-32],[8,-42],[-19,-158],[6,-110],[-11,-37],[-94,-152],[-20,-77],[-2,-85],[28,-92],[-99,-55],[-203,-3],[-51,14],[-69,-2],[-74,-59],[-33,-7],[-50,-46],[-19,-63],[0,-40],[18,-38],[79,-64],[20,-40],[53,-154],[4,-76],[-57,-105],[-108,-82],[-114,-47],[-140,-9],[-37,-70],[-5,-37],[70,-34],[33,-34],[15,-81],[-26,-36],[-72,-18],[-35,-25],[-13,-41],[34,-35],[115,-2],[36,-27],[20,-38],[-37,-34],[-4,-39],[65,-74],[-6,-41],[-69,-64],[-17,-37],[-22,-114],[-69,-171],[43,-13],[8,-13],[33,-123],[39,-28],[36,-8],[103,7],[23,-19],[16,-53],[44,-25],[132,16],[100,-54],[31,-58],[49,-17],[30,-37],[55,26],[21,-323],[-75,-103],[8,-50],[72,-123],[0,-37],[-39,-29],[-17,-36],[3,-35],[22,-45],[70,-60],[20,-76],[-38,-109],[-31,-51],[-39,-36],[-73,20],[-38,24],[-120,153],[-73,11],[-70,49],[-33,8],[-109,11],[-36,-13],[-75,-38],[-94,-104],[-57,-26],[-33,-34],[-34,-5],[-30,36],[-62,27],[-166,-23],[-11,11],[1,18],[-93,0],[-56,32],[-17,-2],[12,-29],[-31,-8],[-84,137],[-97,59],[-35,0],[-10,10],[-3,36],[-65,16],[-39,-49],[-3,16],[-17,1],[-19,23],[-25,50],[0,42],[-24,35],[-3,31],[-49,66],[-8,-3],[-62,60],[-3,26],[-73,82],[-3,13],[27,-2],[21,38],[-46,99],[2,40],[-39,85],[-143,216],[-1,20],[15,-5],[21,13],[29,56],[-16,52],[-52,77],[15,10],[-7,26],[13,18],[-55,99],[13,39],[-2,49],[-44,105],[18,13],[7,31],[29,-12],[8,33],[12,9],[-7,19],[20,5],[21,37],[-1,18],[16,79],[34,37],[47,11],[48,47],[16,2],[66,-32],[16,4],[14,-20],[8,7],[-2,34],[99,-11],[19,-13],[14,9],[-13,156],[46,154],[47,37],[-1,92],[13,16],[108,51],[45,2],[-2,20],[-171,321],[-71,-45],[-112,79],[-47,72],[-5,80],[-36,106],[15,11],[27,-9],[25,20],[6,26],[1,45],[5,13],[-10,43],[-64,135],[-80,119],[-11,40],[-39,47],[4,63],[-83,102],[-19,68],[-34,57],[-41,81],[-9,61],[-31,35],[-45,85],[11,7],[12,-17],[8,9],[23,-22],[-4,17],[27,-5],[-11,16],[15,4],[7,17],[-49,18],[-27,-11],[-25,28],[140,30],[60,26],[54,55],[59,-24],[34,54],[133,39],[31,-11],[71,-62],[72,0],[36,29],[83,12],[26,18],[30,-3],[46,42],[47,12],[29,-13],[36,3],[144,96],[0,0]],[[3272,10589],[163,12],[107,-51],[106,36],[77,-18],[12,-36],[9,-125],[24,-36],[77,-26],[38,-31],[42,-78],[33,-34],[77,35],[88,154],[34,25],[111,66],[40,11],[36,-7],[68,-76],[111,-158],[92,-199],[147,-19],[36,11],[36,28],[36,0],[180,-93],[33,-25],[9,-78],[71,-16],[-6,-254],[60,-156],[-20,-35],[39,-73],[-28,-44],[-116,-19],[-78,-37],[-42,-38],[-14,-42],[-108,-62],[-39,-37],[40,-82],[-25,-35],[0,-43],[59,-124],[1,-78],[111,-199],[26,-163],[-40,-119],[80,-167],[33,-42],[103,-50],[5,-36],[30,-39],[66,-28],[-30,-148],[-62,2],[-75,-34],[-37,-37],[-33,3],[-33,30],[-35,11],[-46,-36],[-128,-151],[-153,-59],[-75,-21],[-198,99],[-33,10],[-38,-24],[5,-73],[-35,-13],[-152,-331],[-35,-12],[-41,-7],[-145,9],[-119,20],[-74,26],[-76,-22],[-105,51],[-47,8],[-37,-7],[-74,-51],[-35,0],[-146,25],[-69,61],[-36,4],[-181,-78],[-44,-11],[-33,8],[-68,44],[-39,8],[-69,-42],[-37,26],[-47,119],[-87,118],[-11,36],[7,39],[35,78],[-9,40],[-34,21],[-105,33],[-117,9],[-69,36],[-39,-6],[-26,-77],[-114,-34],[-134,-66],[-33,15],[-65,63],[-79,1],[-71,37],[-109,11],[-70,29],[-108,1],[-8,14],[12,26],[-26,9],[11,27],[-8,7],[8,36],[-22,10],[14,23],[-5,32],[23,-5],[8,34],[13,2],[9,-20],[24,27],[11,-4],[39,65],[59,31],[2,45],[-22,40],[26,-9],[6,11],[-23,9],[16,65],[26,-22],[54,34],[7,25],[-9,19],[18,-7],[5,-28],[14,-1],[30,25],[-9,12],[12,19],[23,-6],[10,13],[18,-1],[17,56],[-23,12],[61,41],[4,-17],[11,2],[18,40],[54,17],[26,68],[35,34],[4,23],[37,21],[3,19],[34,41],[19,-1],[-2,41],[-57,150],[0,57],[47,24],[63,81],[70,51],[32,45],[29,11],[32,45],[35,18],[16,57],[64,56],[19,7],[-3,-23],[24,-13],[13,9],[13,-14],[48,37],[-2,28],[31,-10],[26,16],[0,-16],[28,-33],[34,-7],[58,35],[41,55],[104,83],[16,55],[-11,37],[59,138],[50,44],[12,-13],[26,13],[118,172],[3,55],[30,110],[35,29],[19,39],[27,191],[57,55],[53,311],[0,0]],[[7597,12584],[43,-28],[6,-17],[-28,-16],[-5,-18],[14,-53],[46,-8],[13,-50],[82,-29],[91,-108],[71,-11],[102,23],[129,-24],[94,-39],[72,-60],[31,-12],[21,46],[70,0],[11,-55],[90,-32],[97,5],[40,-47],[87,-69],[15,-30],[4,-100],[48,-42],[16,-50],[32,-35],[15,-53],[-15,-97],[-51,-13],[-14,-32],[-31,-12],[6,-16],[44,-22],[51,2],[12,-10],[1,-57],[19,-69],[79,-122],[-15,-75],[-32,-35],[-5,-49],[10,-12],[41,24],[12,-31],[-52,-37],[-23,-45],[3,-39],[35,-54],[22,-67],[-35,-78],[9,-14],[74,-13],[34,-39],[30,-13],[22,21],[68,9],[31,34],[10,39],[36,20],[35,0],[34,39],[4,35],[146,133],[11,49],[-9,132],[-25,113],[85,-78],[33,-79],[-3,-81],[16,-29],[70,-14],[68,18],[28,-17],[12,-32],[27,-18],[56,31],[109,-22],[198,53],[78,-37],[37,8],[78,-10],[33,9],[34,29],[126,139],[129,64],[196,63],[70,-5],[34,-18],[36,8],[16,35],[-21,57],[1,42],[-40,48],[-43,24],[-16,28],[31,129],[-44,66],[-13,79],[10,78],[23,44],[-11,35],[195,-112],[179,-121],[122,-153],[79,-16],[71,2],[38,-21],[48,-78],[6,-37],[-55,-81],[3,-44],[-28,-41],[-9,-103],[-43,-12],[-31,-50],[-70,-72],[-15,-35],[-11,-146],[-13,-36],[-34,-36],[-107,-5],[-34,-19],[7,-36],[33,-31],[6,-36],[-23,-37],[-36,-3],[-39,18],[-25,-38],[-24,-110],[-34,-19],[-30,-43],[-14,-40],[6,-44],[45,-81],[-4,-61],[-30,-42],[-200,-192],[-2,-39],[33,-32],[-10,-43],[-27,-36],[-83,-16],[-38,-31],[-27,-51],[-38,-33],[-84,-14],[-159,-157],[-31,-35],[13,-79],[-10,-39],[-51,-75],[-122,-142],[16,-78],[-13,-35],[-71,-41],[-117,-121],[-21,37],[-38,-35],[1,-43],[58,-117],[6,-36],[-14,-37],[-39,-12],[-34,-36],[-14,-74],[-109,-52],[20,-45],[-57,-76],[80,-153],[9,-78],[-10,-36],[-122,-46],[-102,-96],[48,-75],[11,-47],[-53,-92],[19,-37],[3,-36],[-38,-145],[-37,-34],[-74,-21],[-40,-3],[-35,12],[-35,-12],[6,-44],[34,-82],[-9,-150],[-42,-91],[-57,-33],[-27,-39],[-46,-19],[-77,-56],[-73,-1],[-76,-32],[-60,8],[-58,-31],[-81,-126],[-100,-79],[-11,-36],[3,-85],[-28,-64],[-31,-37],[15,-49],[-14,-8],[-74,14],[-74,34],[-50,71],[-70,10],[-152,116],[-33,167],[-35,38],[-11,37],[-34,41],[-42,21],[-47,7],[-114,-85],[-179,112],[-148,-69],[-184,14],[-35,-19],[-6,17],[22,225],[-20,92],[28,58],[4,77],[45,118],[13,150],[5,125],[-27,130],[18,102],[21,232],[-16,51],[16,54],[-42,224],[-13,183],[7,40],[-13,52],[8,181],[-72,21],[-144,85],[-14,88],[-32,36],[-35,9],[-17,41],[-4,77],[112,78],[11,39],[17,139],[-12,40],[-41,41],[-2,37],[-26,42],[5,38],[38,52],[70,40],[117,105],[30,59],[16,94],[57,100],[36,32],[9,59],[-10,57],[-60,73],[-84,71],[-9,78],[-24,45],[-114,63],[-1,48],[-70,41],[-6,35],[-32,34],[-42,216],[-144,-10],[-33,36],[-35,7],[-77,-11],[-70,62],[-40,-11],[-65,-67],[-35,3],[-113,-26],[-75,37],[-38,-9],[-106,56],[68,159],[-10,119],[34,34],[151,242],[26,81],[22,146],[22,45],[105,-81],[41,-3],[71,47],[110,-58],[33,-8],[36,12],[107,204],[55,71],[41,33],[191,100],[53,70],[1,26],[90,41],[8,38],[39,50],[-16,27],[1,20],[36,38]],[[1729,22736],[28,-34],[138,17],[5,-95],[123,-121],[42,-83],[140,-89],[4,-56],[-14,-14],[-22,0],[-38,18],[-36,-25],[-76,-15],[-96,-48],[-67,0],[-26,-11],[-7,-26],[-29,-1],[-13,-31],[-25,-19],[-35,-75],[14,-12],[-2,-11],[-33,-38],[-37,-12],[-38,-43],[-19,-76],[-70,-16],[-50,13],[-10,-17],[11,-50],[-17,-49],[-22,0],[-27,-30],[-16,0],[-19,-17],[-34,0],[-36,-28],[-76,-2],[-13,-40],[25,-37],[77,-35],[-3,-977],[-415,-15],[-91,-43],[14,-39],[-71,108],[-24,59],[-13,86],[57,145],[44,-13],[28,22],[5,45],[-15,87],[-85,219],[17,7],[0,19],[-71,118],[14,41],[-13,30],[22,14],[-17,19],[-4,8],[-12,21],[-14,-5],[-1,12],[-10,1],[-4,-13],[19,-10],[14,-46],[-172,257],[-11,18],[252,217],[57,213],[67,-81],[73,6],[88,92],[150,256],[246,59],[72,127],[150,2],[-52,76],[2,65],[36,44],[46,-18],[21,-25]],[[9669,7588],[425,-262],[36,-2],[103,25],[71,-39],[147,-115],[35,-14],[72,29],[35,-14],[26,-36],[63,-44],[22,-28],[24,9],[26,-21],[11,-45],[69,-45],[27,-41],[11,-56],[77,-118],[6,-17],[-16,-51],[45,-129],[-15,-33],[7,-56],[36,-79],[30,-18],[2,-53],[36,-36],[0,-28],[34,-37],[-3,-20],[18,0],[44,-32],[15,2],[153,62],[37,3],[217,-125],[-52,197],[-2,72],[82,47],[34,12],[36,-14],[67,-61],[38,-9],[50,9],[68,-24],[178,40],[23,-28],[29,-83],[83,-73],[18,-97],[47,-42],[49,-132],[69,-42],[14,-52],[46,-23],[13,-30],[37,-32],[11,-30],[103,-75],[20,-50],[35,2],[1,-42],[16,-6],[32,11],[15,-27],[36,-10],[43,-80],[63,-48],[46,-67],[127,-74],[69,-17],[87,-50],[118,12],[141,-35],[91,40],[86,-22],[74,38],[51,-12],[59,30],[31,-12],[29,-39],[147,-32],[17,5],[14,32],[36,-1],[56,-56],[38,1],[29,14],[16,-31],[38,-28],[80,-22],[67,-90],[39,-30],[39,-74],[32,-14],[27,19],[14,-4],[-12,-53],[20,-29],[75,5],[53,-35],[46,-158],[53,-61],[35,-10],[46,-44],[75,-11],[18,-27],[29,-14],[26,-66],[-9,-105],[7,-37],[22,-24],[36,-1],[13,-10],[27,-63],[50,-41],[-9,-72],[49,-41],[42,-118],[66,-69],[41,-2],[57,-33],[-11,-31],[15,-32],[0,-39],[11,-12],[38,0],[22,-22],[6,-53],[23,-46],[49,-42],[-3,-39],[21,-24],[9,-59],[208,-125],[53,-54],[5,-58],[83,-89],[28,-12],[-9,-47],[60,-82],[12,-32],[26,-117],[-5,-45],[15,-41],[-21,-27],[44,-5],[37,-58],[55,-42],[18,-31],[57,-16],[31,-64],[50,-20],[58,-81],[3,-27],[45,-24],[127,-147],[46,-31],[0,-32],[29,-35],[104,-85],[58,-89],[111,-106],[-1,-30],[42,-13],[27,-59],[81,-68],[30,-49],[-10,-23],[6,-17],[147,-60],[30,-37],[134,-100],[2,-29],[46,-55],[31,-12],[37,-112],[31,-24],[37,-7],[1,-29],[28,-25],[-9,-13],[65,-21],[87,-120],[68,8],[44,-28],[38,12],[41,-42],[42,-5],[49,-52],[7,-46],[-3069,-659],[-40,24],[-40,3],[-38,39],[-53,1],[-58,32],[-24,-1],[-42,21],[-34,39],[-97,-6],[-29,-11],[-31,7],[-24,-23],[-55,7],[-12,-12],[-90,-12],[-30,10],[-56,-21],[-24,-31],[-53,-14],[-5,-21],[-31,-5],[-9,-22],[5,-21],[-77,-13],[-75,34],[-23,-3],[-6,26],[-69,-15],[-41,42],[-51,25],[-40,3],[-23,2],[-37,-13],[-70,7],[-65,44],[-32,8],[-29,54],[-98,34],[-31,-3],[-81,58],[-40,-25],[-36,17],[-42,-45],[-11,11],[-97,14],[-86,-52],[-47,28],[-37,7],[-50,-21],[-46,23],[-40,-6],[-24,25],[-66,23],[-34,-29],[-23,-5],[-39,0],[-54,19],[-28,-5],[-40,-30],[-11,-28],[-22,-5],[-43,55],[-27,-11],[-32,44],[-33,17],[-142,-34],[-90,15],[-12,-16],[-73,17],[-79,-13],[-52,32],[-13,1],[-8,-17],[-30,12],[-20,-7],[-7,9],[-5,19],[-21,14],[-17,-7],[-28,22],[-26,-5],[-19,14],[-34,-19],[-79,30],[-10,-8],[-37,11],[-15,-4],[-36,-44],[-303,29],[-43,28],[-24,-3],[-36,29],[-4,21],[-68,12],[-32,51],[-40,-4],[-30,47],[-163,127],[-15,27],[2,30],[-27,31],[-51,10],[-27,33],[-20,63],[-25,22],[-11,26],[-51,27],[-12,57],[-75,100],[-1765,7],[44,245],[-127,435],[1,193],[18,216],[91,185],[23,130],[16,38],[107,113],[46,170],[2,210],[-51,315],[6,268],[-35,76],[-106,100],[-108,193],[-95,226],[-109,30],[-32,39],[-24,116],[-29,-19],[-22,48],[-88,26],[-39,51],[-32,13],[-6,56],[-64,36],[-42,45],[12,35],[-12,34],[-88,46],[-26,40],[15,49],[-56,27],[-42,45],[-33,61],[3,36],[21,23],[-9,59],[-54,57],[-30,61],[-2,59],[14,79],[-22,91],[-62,63],[21,78],[16,5],[1,15],[-87,27],[17,22],[-6,15],[-35,4],[-83,82],[-2,152],[12,81],[-14,53],[13,56],[-46,109],[-5,106],[-22,68],[2,21],[27,18],[5,18],[23,141],[-37,120],[20,68],[-20,46],[35,19],[184,-14],[148,69],[179,-112],[114,85],[47,-7],[42,-21],[34,-41],[11,-37],[35,-38],[33,-167],[152,-116],[70,-10],[50,-71],[74,-34],[74,-14],[14,8],[-15,49],[31,37],[28,64],[-3,85],[11,36],[100,79],[81,126],[58,31],[60,-8],[76,32],[73,1],[77,56],[46,19],[27,39],[57,33],[42,91],[9,150],[-34,82],[-6,44],[35,12],[35,-12],[40,3],[74,21],[37,34],[38,145]],[[4592,16239],[20,-65],[57,10],[60,-28],[55,-5],[75,32],[61,72],[16,63],[55,55],[78,-8],[78,-54],[80,41],[85,-11],[21,70],[40,3],[11,35],[29,5],[14,43],[12,6],[2,103],[33,55],[2,19],[-33,35],[-31,-12],[-10,12],[5,41],[33,56],[-12,87],[140,35],[187,5],[45,-26],[26,-41],[-5,-55],[13,-54],[55,-25],[54,-4],[90,31],[55,54],[141,3],[31,-36],[56,-32],[0,-15],[-45,-9],[0,-17],[20,-61],[18,-5],[7,16],[17,3],[21,-23],[7,-159],[-3,-90],[20,-44],[-8,-68],[19,-25],[-10,-47],[21,-32],[-41,-51],[-200,-52],[9,-74],[-102,-154],[43,-96],[33,-24],[77,-5],[33,-82],[-45,-75],[-57,-189],[-18,-156],[-25,-73],[18,-116],[-13,-99],[-52,-37],[-77,3],[-29,-12],[-29,1],[-38,29],[-19,1],[-62,-47],[-54,-3],[-44,-46],[-29,-14],[-75,1],[-47,-18],[-43,-44],[-15,-53],[-8,-103],[-87,-17],[-54,10],[-49,-20],[90,-70],[18,-79],[-108,-101],[4,-36],[36,-28],[21,-37],[19,-117],[-10,-35],[-81,-76],[-45,-2],[-61,51],[-49,2],[-82,28],[-7,-14],[18,-27],[-32,-33],[-54,12],[-62,-4],[-27,-16],[-70,-14],[-39,5],[-18,-4],[-25,-43],[-16,-7],[-167,-24],[-86,18],[-55,-25],[-31,37],[-48,16],[-32,58],[-99,54],[-133,-16],[-43,25],[-16,53],[-23,19],[-103,-7],[-36,8],[-39,29],[-33,123],[-8,12],[-43,13],[69,172],[22,113],[17,37],[69,65],[5,41],[-64,74],[4,38],[36,34],[-20,38],[-36,26],[-114,3],[-35,35],[14,40],[35,26],[72,18],[26,36],[-15,80],[-33,35],[-70,34],[5,37],[37,69],[140,9],[114,48],[108,82],[57,105],[-4,76],[-53,154],[-20,40],[-79,63],[-19,38],[0,40],[19,63],[50,46],[34,8],[74,58],[68,3],[51,-15],[204,4],[98,55]],[[4468,13912],[86,-18],[167,24],[16,7],[25,43],[18,4],[39,-5],[70,14],[27,16],[62,4],[54,-12],[32,33],[-18,27],[7,14],[82,-28],[49,-2],[61,-51],[45,2],[23,-32],[31,-13],[31,-35],[30,-1],[47,-41],[65,-10],[35,8],[29,-16],[63,-1],[54,3],[78,33],[69,14],[67,-8],[70,18],[37,-10],[72,16],[104,-21],[113,7],[71,105],[39,5],[107,-33],[153,22],[107,-25],[163,-19],[57,-73],[23,-78],[32,-28],[67,-31],[27,-38],[-12,-102],[65,-90],[10,-103],[40,-88],[-9,-25],[-62,-50],[-11,-33],[19,-126],[25,-19],[56,-7],[40,-47],[12,-34],[26,-18],[-7,-83],[9,-33],[63,-20],[34,-56],[66,-88],[38,-30],[41,-66],[-36,-38],[-1,-20],[16,-27],[-39,-50],[-8,-38],[-90,-41],[-1,-26],[-53,-70],[-191,-100],[-41,-33],[-55,-71],[-107,-204],[-36,-12],[-33,8],[-110,58],[-71,-47],[-41,3],[-105,81],[-22,-45],[-22,-146],[-26,-81],[-151,-242],[-34,-34],[10,-119],[-68,-159],[-21,-39],[-36,-17],[-291,-50],[-69,-50],[-113,-26],[-67,-56],[-12,-124],[42,-65],[5,-77],[37,-29],[-21,-47],[0,-62],[-38,-28],[28,-39],[-28,-120],[23,-40],[-116,7],[-54,-69],[-35,-21],[-37,16],[-79,-51],[-94,-12],[-65,-69],[-76,-202],[-71,16],[-8,79],[-33,24],[-180,94],[-36,0],[-36,-29],[-36,-10],[-147,19],[-93,199],[-111,158],[-68,75],[-35,7],[-41,-11],[-110,-66],[-35,-25],[-87,-153],[-78,-36],[-32,34],[-42,78],[-38,31],[-78,26],[-23,36],[-9,125],[-13,36],[-76,18],[-107,-36],[-107,51],[-163,-12],[-24,203],[-2,38],[10,21],[-29,58],[20,15],[7,28],[-10,40],[4,47],[23,70],[-7,45],[20,57],[-14,88],[20,42],[27,5],[4,12],[-8,102],[14,27],[9,141],[39,226],[-16,83],[-40,96],[-168,243],[39,15],[20,44],[24,11],[15,29],[-1,20],[-24,48],[-223,289],[-141,152],[28,46],[-7,50],[-26,98],[-42,49],[38,50],[66,-17],[3,-36],[10,-10],[36,0],[97,-59],[84,-137],[30,8],[-12,29],[17,2],[56,-32],[94,0],[-2,-19],[12,-10],[165,23],[62,-27],[30,-36],[35,4],[32,34],[58,26],[94,104],[75,38],[36,13],[109,-11],[33,-8],[69,-49],[73,-11],[121,-153],[38,-24],[73,-20],[38,36],[32,51],[37,109],[-19,76],[-70,60],[-22,45],[-3,36],[17,36],[39,28],[-1,37],[-71,124],[-9,49],[76,104],[-21,322]],[[2787,3061],[90,-80],[61,-82],[70,-49],[71,25],[112,55],[43,36],[190,276],[48,8],[35,-21],[55,-75],[33,-18],[35,5],[42,35],[41,78],[33,37],[204,45],[34,39],[177,96],[233,267],[107,-30],[72,4],[39,15],[180,-38],[261,-75],[34,-16],[68,-75],[31,-114],[149,-39],[35,6],[53,115],[93,110],[85,189],[24,84],[95,102],[48,130],[80,152],[39,15],[67,80],[38,18],[78,66],[48,-3],[113,83],[70,-14],[105,23],[92,-37],[187,-3],[35,-12],[155,44],[118,-24],[37,29],[80,120],[107,115],[15,38],[36,39],[36,20],[187,74],[147,-29],[174,1],[56,-27],[-15,-49],[26,-40],[88,-46],[12,-34],[-12,-35],[42,-45],[64,-36],[6,-56],[32,-13],[39,-51],[88,-26],[22,-48],[29,19],[24,-116],[32,-39],[109,-30],[95,-226],[108,-193],[106,-100],[35,-76],[-6,-268],[51,-315],[-2,-210],[-46,-170],[-107,-113],[-16,-38],[-23,-130],[-91,-185],[-18,-216],[-1,-193],[127,-435],[-44,-245],[-3,-14],[-258,-2],[-358,6],[-3,10],[-3292,-1],[-795,11],[-15,-48],[-60,-13],[-20,-23],[-63,12],[-27,-28],[-116,39],[-39,-20],[-56,-3],[-43,26],[-21,66],[-53,49],[-103,45],[-97,75],[-51,18],[-41,40],[-21,0],[-66,73],[-138,95],[-53,22],[-9,15],[27,36],[0,25],[-81,122],[-86,35],[-54,40],[-46,1],[-14,3],[-7,87],[-41,83],[-223,237],[-32,42],[-12,41],[32,77],[35,36],[35,5],[39,28],[55,85],[-7,38],[-22,38],[-63,64],[36,58],[25,20],[45,7],[35,57],[49,3],[24,52],[18,-24],[45,45],[29,2],[125,152]],[[6282,11131],[106,-56],[38,9],[75,-37],[113,26],[35,-3],[65,67],[40,11],[70,-62],[77,11],[35,-7],[33,-36],[144,10],[42,-216],[32,-34],[6,-35],[70,-41],[1,-48],[114,-63],[24,-45],[9,-78],[84,-71],[60,-73],[10,-57],[-9,-59],[-36,-32],[-57,-100],[-16,-94],[-30,-59],[-117,-105],[-70,-40],[-38,-52],[-5,-38],[26,-42],[2,-37],[41,-41],[12,-40],[-17,-139],[-11,-39],[-112,-78],[4,-77],[17,-41],[35,-9],[32,-36],[14,-88],[144,-85],[72,-21],[-8,-181],[13,-52],[-7,-40],[13,-183],[42,-224],[-16,-54],[16,-51],[-21,-232],[-116,-19],[-72,35],[-34,3],[-117,-39],[-40,22],[-16,43],[-38,-6],[-44,-12],[-38,-35],[-74,-125],[-107,-20],[-39,15],[-65,76],[-72,4],[-231,-259],[-85,-116],[-36,-29],[-111,-37],[-24,-38],[-1,-35],[-31,-35],[-110,-65],[-41,-12],[-34,7],[8,166],[-8,47],[-143,-6],[-37,15],[-19,36],[-15,245],[-34,79],[-30,37],[-34,17],[-152,-33],[-69,-28],[-68,28],[-65,28],[-30,39],[-5,36],[-103,50],[-33,42],[-80,167],[40,119],[-26,163],[-111,199],[-1,78],[-59,124],[1,43],[24,35],[-40,82],[39,37],[108,62],[14,41],[42,39],[78,36],[116,20],[28,44],[-39,72],[20,35],[-59,157],[5,253],[76,202],[65,69],[94,12],[79,51],[37,-16],[35,21],[54,69],[116,-7],[-23,40],[28,120],[-28,39],[38,28],[0,62],[21,47],[-37,29],[-5,77],[-42,65],[12,124],[67,56],[113,26],[69,50],[291,50],[36,17],[21,39]],[[5301,7860],[68,-28],[69,28],[152,33],[34,-17],[30,-37],[34,-79],[15,-245],[19,-36],[37,-15],[143,6],[8,-47],[-8,-166],[34,-7],[41,12],[110,65],[31,35],[1,35],[24,38],[111,37],[36,29],[85,116],[231,259],[72,-4],[65,-76],[39,-15],[107,20],[74,125],[38,35],[44,12],[38,6],[16,-43],[40,-22],[117,39],[34,-3],[72,-35],[116,19],[-18,-102],[27,-130],[-5,-125],[-13,-150],[-45,-118],[-4,-77],[-28,-58],[20,-92],[-22,-225],[6,-17],[20,-46],[-20,-68],[37,-120],[-23,-141],[-5,-18],[-27,-18],[-2,-21],[22,-68],[5,-106],[46,-109],[-13,-56],[14,-53],[-12,-81],[2,-152],[83,-82],[35,-4],[6,-15],[-17,-22],[87,-27],[-1,-15],[-16,-5],[-21,-78],[62,-63],[22,-91],[-14,-79],[2,-59],[30,-61],[54,-57],[9,-59],[-21,-23],[-3,-36],[33,-61],[42,-45],[-174,-1],[-147,29],[-187,-74],[-36,-20],[-36,-39],[-15,-38],[-107,-115],[-80,-120],[-37,-29],[-118,24],[-155,-44],[-35,12],[-187,3],[-92,37],[-105,-23],[-70,14],[-113,-83],[-48,3],[-78,-66],[-38,-18],[-67,-80],[-39,-15],[-80,-152],[-48,-130],[-95,-102],[-24,-84],[-85,-189],[-93,-110],[-53,-115],[-35,-6],[-149,39],[-31,114],[-68,75],[-34,16],[-261,75],[-180,38],[-39,-15],[-72,-4],[-107,30],[-233,-267],[-177,-96],[-34,-39],[-204,-45],[-33,-37],[-41,-78],[-42,-35],[-35,-5],[-33,18],[-55,75],[-35,21],[-48,-8],[-190,-276],[-43,-36],[-112,-55],[-71,-25],[-70,49],[-61,82],[-90,80],[40,23],[14,37],[34,35],[2,36],[-62,122],[-15,77],[57,154],[121,230],[-74,121],[-8,37],[10,406],[-117,46],[-73,62],[-24,38],[21,82],[-24,77],[-43,11],[-16,-36],[-38,-27],[-36,-4],[-33,42],[11,45],[-5,55],[-45,9],[-74,-21],[-35,34],[-3,39],[115,70],[12,40],[-91,115],[11,41],[64,80],[-39,120],[0,46],[62,72],[74,13],[30,42],[112,93],[116,54],[91,68],[77,192],[9,160],[85,124],[-6,140],[-15,74],[13,83],[-37,17],[-34,-20],[-36,27],[-15,40],[25,86],[-21,80],[-38,78],[14,53],[69,119],[9,38],[-11,39],[-67,49],[-28,91],[181,78],[36,-4],[70,-60],[146,-26],[35,0],[74,51],[37,7],[47,-8],[105,-51],[76,22],[74,-26],[120,-20],[144,-9],[41,7],[35,12],[152,331],[35,13],[-5,74],[38,23],[33,-9],[198,-100],[75,21],[153,59],[128,151],[46,36],[35,-10],[33,-30],[34,-4],[37,37],[74,34],[62,-2],[30,148]],[[2239,15338],[5,-24],[-12,-39],[-26,-6],[-3,20],[36,49],[0,0]],[[2280,15408],[16,-12],[-33,-7],[1,-24],[-33,-13],[-25,-28],[-2,-18],[-14,-2],[-12,-24],[-33,-22],[-22,-44],[-18,-2],[14,35],[143,154],[18,7],[0,0]],[[2776,15717],[72,44],[171,-321],[1,-20],[-44,-2],[-108,-51],[-13,-16],[1,-92],[-47,-37],[-46,-154],[13,-156],[-14,-9],[-18,13],[-100,11],[3,-34],[-9,-7],[-14,20],[-16,-4],[-66,32],[-16,-2],[-48,-47],[-46,-11],[-35,-37],[-15,-79],[1,-16],[-22,-39],[-20,-5],[7,-19],[-12,-9],[-8,-33],[-29,12],[-6,-31],[-18,-13],[-151,267],[-33,79],[-53,69],[2,108],[25,10],[9,-12],[-25,-5],[12,-11],[-11,-38],[6,-13],[9,-27],[-10,-18],[14,-7],[6,41],[51,46],[32,82],[27,17],[20,56],[68,2],[17,47],[-2,34],[66,76],[4,41],[17,10],[0,32],[13,12],[21,-8],[13,24],[37,-4],[23,23],[8,33],[20,14],[96,-34],[33,27],[20,22],[27,118],[-9,68],[99,-69],[0,0]],[[13541,18618],[239,-1],[-13,-102],[-45,-51],[-22,-104],[-36,-71],[-12,-51],[-12,-124],[8,-102],[1907,-4],[10,-31],[50,-41],[29,-95],[-15,-29],[38,-38],[3,-27],[-19,-27],[21,-26],[-31,-74],[26,-61],[-3,-26],[-14,-17],[8,-36],[-30,-28],[-7,-51],[-20,-14],[1,-34],[-24,-80],[-15,-16],[-4,-32],[-24,-28],[16,-66],[-21,-23],[-4,-23],[13,-80],[-3,-22],[-35,-34],[0,-18],[22,-35],[17,-67],[26,-50],[40,-41],[63,-145],[49,-51],[2,-20],[-16,-17],[28,-99],[1,-55],[51,-38],[-37,-31],[-86,-43],[-69,-122],[-34,-8],[-81,21],[-149,-58],[-35,-29],[-69,-115],[-295,-55],[-150,41],[-43,-9],[-34,-27],[-110,14],[-84,-51],[-47,-12],[-66,3],[-143,-81],[-30,-74],[-117,-59],[-33,-33],[-101,-173],[-61,-207],[-74,-45],[-115,-16],[-79,-55],[-42,-44],[-113,-15],[-39,-23],[-44,-116],[-8,-71],[-28,-36],[-34,-26],[-152,-9],[-37,-18],[-166,-141],[-182,-179],[-51,-414],[-19,-51],[-49,-77],[-109,-124],[-38,-30],[-208,-36],[-45,-20],[-110,-102],[-34,-10],[-123,-1],[-41,-17],[-154,-141],[-176,-47],[-100,-114],[-115,-61],[-80,-33],[-223,-21],[-33,-16],[-116,-146],[-185,-87],[-34,-14],[-256,21],[-34,-8],[14,-31],[29,-16],[-25,-19],[2,-13],[39,-1],[39,-34],[-41,-32],[-71,-26],[-42,-75],[12,-40],[34,-21],[20,-41],[-37,-80],[-187,-16],[-34,5],[-140,96],[-37,7],[-36,46],[-104,80],[-33,17],[-68,3],[-37,15],[1,36],[-63,70],[-5,26],[158,155],[-1,49],[-70,26],[-23,21],[-28,51],[-32,18],[-35,98],[-38,21],[-10,28],[11,38],[-7,15],[25,37],[-1,32],[-64,102],[-9,57],[-46,12],[-29,36],[-51,176],[-148,74],[-115,-19],[-25,36],[6,75],[-32,37],[-13,39],[-138,38],[-34,27],[-22,73],[-74,16],[-22,37],[14,39],[-12,76],[-36,76],[-34,34],[-11,78],[-33,36],[-7,78],[71,64],[184,74],[70,12],[31,45],[-2,77],[53,78],[9,36],[-30,81],[-7,76],[-15,41],[45,260],[5,70],[-15,108],[19,71],[-20,77],[10,74],[-71,49],[-38,130],[22,114],[53,73],[-23,27],[-22,155],[5,39],[-9,33],[24,21],[-2,19],[-27,38],[-18,4],[-3,18],[16,48],[38,-32],[79,-1],[114,44],[55,8],[116,-23],[44,32],[92,20],[84,-5],[65,-50],[28,24],[154,-2],[5,19],[-25,32],[17,46],[57,9],[28,43],[98,31],[68,-7],[50,10],[21,-10],[-12,-10],[7,-23],[23,-6],[11,8],[43,-22],[16,8],[17,-10],[35,23],[-11,22],[209,0],[13,66],[-5,65],[380,-2],[6,-59],[-8,-10],[34,-60],[881,8],[-25,136],[-21,22],[20,33],[-1,20],[14,9],[-4,82],[38,48],[22,113],[13,21],[-17,83],[-31,56],[-14,55],[17,10],[2,14],[142,3],[31,56],[-12,50],[40,22],[16,25],[44,3],[-9,25],[-29,20],[10,21],[-18,12],[-41,93],[14,21],[-25,69],[28,171],[-15,52],[58,147],[45,50],[-23,45],[-6,50],[1166,3],[24,139],[238,1]],[[15804,16128],[27,-116],[-27,-56],[4,-57],[-35,-57],[21,-23],[-35,-56],[4,-41],[-27,-77],[9,-78],[-36,-107],[4,-16],[-23,-45],[4,-27],[-14,-41],[7,-28],[-25,-159],[18,-47],[-29,-28],[1,-84],[27,-87],[3,-91],[-48,-111],[-5,-48],[-21,-23],[-20,-111],[-14,-27],[64,-73],[-7,-54],[59,-113],[-3,-53],[14,-28],[-7,-26],[10,-18],[-3,-19],[90,-56],[9,-43],[40,-30],[16,-55],[15,-3],[27,24],[-2,-55],[15,-51],[20,-33],[30,-2],[44,-67],[35,-14],[32,17],[21,-31],[34,4],[60,-58],[-3,-34],[30,-66],[-17,-20],[32,-38],[-10,-24],[19,-57],[-3,-145],[20,-41],[1,-43],[67,-85],[9,-40],[-6,-28],[39,-43],[32,-95],[-8,-59],[-41,-77],[-5,-51],[-23,-18],[0,-13],[57,-39],[3,-114],[-63,-28],[-72,1],[-53,36],[-81,24],[-57,-6],[-31,11],[-68,-65],[-223,-7],[-45,21],[-93,-8],[-41,-46],[-41,-94],[-18,-95],[3,-103],[-53,-37],[-58,-73],[-11,-141],[-19,-25],[-3,-21],[43,-90],[34,-3],[-10,-33],[12,-31],[-5,-66],[-85,-23],[-7,-17],[-63,-14],[-22,-21],[-68,11],[-18,24],[-6,-17],[-44,8],[-29,-58],[-31,4],[-29,-15],[-31,6],[-30,-21],[0,-13],[-69,-10],[-99,-56],[-91,-15],[-17,-21],[-1,-30],[-31,-34],[-31,-9],[-40,-73],[-60,-23],[-30,11],[-64,-46],[-34,-5],[5,-40],[16,-28],[-11,-30],[-30,-13],[-163,29],[-29,-12],[-26,17],[-57,-5],[-61,16],[-41,25],[-46,-13],[-32,57],[-36,5],[-28,-13],[-76,56],[-37,-4],[-44,22],[-25,41],[-17,6],[-33,-11],[-46,19],[-55,56],[-81,49],[-35,-3],[-40,-26],[-27,16],[-38,4],[-29,38],[-44,21],[-33,-9],[-15,7],[-18,26],[-47,21],[-20,24],[-33,-9],[-99,-124],[-51,0],[-61,45],[-45,-18],[-51,11],[-33,-57],[-30,-13],[-37,4],[-30,58],[-33,0],[-21,24],[-53,-29],[-25,-41],[-104,-27],[-90,41],[-62,49],[-54,3],[-48,-28],[-25,-65],[-67,-66],[-60,-53],[-51,-14],[-47,-39],[-35,-9],[-102,27],[-41,-2],[-27,-17],[-27,-41],[-88,-29],[9,103],[28,41],[-3,44],[55,81],[-6,37],[-48,78],[-38,21],[-71,-2],[-79,16],[-122,153],[-179,121],[-195,112],[-24,86],[-54,58],[-44,23],[-44,43],[-60,143],[-5,100],[-13,28],[23,23],[46,-10],[-19,43],[27,14],[-1,33],[23,11],[-29,15],[19,21],[-36,30],[-8,37],[-18,-26],[-44,21],[-18,27],[-10,-13],[-7,38],[-27,-1],[-10,74],[-24,12],[-39,34],[-39,1],[-2,13],[25,19],[-29,16],[-14,31],[34,8],[256,-21],[34,14],[185,87],[116,146],[33,16],[223,21],[80,33],[115,61],[100,114],[176,47],[154,141],[41,17],[123,1],[34,10],[110,102],[45,20],[208,36],[38,30],[109,124],[49,77],[19,51],[51,414],[182,179],[166,141],[37,18],[152,9],[34,26],[28,36],[8,71],[44,116],[39,23],[113,15],[42,44],[79,55],[115,16],[74,45],[61,207],[101,173],[33,33],[117,59],[30,74],[143,81],[66,-3],[47,12],[84,51],[110,-14],[34,27],[43,9],[150,-41],[295,55],[69,115],[35,29],[149,58],[81,-21],[34,8],[69,122],[86,43],[37,31],[12,-29],[-28,-41],[-2,-45],[38,-70]],[[8032,17482],[68,20],[39,36],[22,72],[1,120],[26,35]],[[8188,17765],[72,63],[38,18]],[[8298,17846],[48,5],[29,-20]],[[8375,17831],[-9,-43],[8,-13],[30,1],[18,32],[25,-32],[28,-3],[14,-18],[-5,-18],[-39,-9],[-9,-26],[20,-22],[51,-26],[8,-21],[-11,-34],[35,-75],[45,-41],[71,-33],[16,-22],[-10,-71],[-14,-16],[24,-23],[17,4],[3,-25],[18,-1],[-15,-68],[35,-33],[68,-23],[-3,-47],[38,-3],[-13,-31],[27,7],[17,-9],[-10,-44],[32,-5],[14,-18],[-19,-72],[24,-28],[21,-1],[-5,-24],[25,15],[8,-6],[3,-73],[-12,-3],[36,-22],[39,-50],[-3,-8],[-21,4],[-19,-37],[1,-23],[35,-16],[11,-26],[-16,-48],[3,-18],[18,-4],[27,-38],[2,-19],[-24,-21],[9,-33],[-5,-39],[22,-155],[23,-27],[-53,-73],[-22,-114],[38,-130],[71,-49],[-10,-74],[20,-77],[-19,-71],[15,-108],[-5,-70],[-45,-260],[15,-41],[7,-76],[30,-81],[-9,-36],[-53,-78],[2,-77],[-31,-45],[-70,-12],[-184,-74],[-71,-64],[7,-78],[33,-36],[11,-78],[34,-34],[36,-76],[12,-76],[-14,-39],[22,-37],[74,-16],[22,-73],[34,-27],[138,-38],[13,-39],[32,-37],[-6,-75],[25,-36],[115,19],[148,-74],[51,-176],[29,-36],[46,-12],[9,-57],[64,-102],[1,-32],[-25,-37],[7,-15],[-11,-38],[10,-28],[38,-21],[35,-98],[32,-18],[28,-51],[23,-21],[70,-26],[1,-49],[-158,-155],[5,-26],[63,-70],[-1,-36],[37,-15],[68,-3],[33,-17],[104,-80],[36,-46],[37,-7],[140,-96],[34,-5],[187,16],[37,80],[-20,41],[-34,21],[-12,40],[42,75],[71,26],[41,32],[24,-12],[10,-74],[27,1],[7,-38],[10,13],[18,-27],[44,-21],[18,26],[8,-37],[36,-30],[-19,-21],[29,-15],[-23,-11],[1,-33],[-27,-14],[19,-43],[-46,10],[-23,-23],[13,-28],[5,-100],[60,-143],[44,-43],[44,-23],[54,-58],[24,-86],[11,-35],[-23,-44],[-10,-78],[13,-79],[44,-66],[-31,-129],[16,-28],[43,-24],[40,-48],[-1,-42],[21,-57],[-16,-35],[-36,-8],[-34,18],[-70,5],[-196,-63],[-129,-64],[-126,-139],[-34,-29],[-33,-9],[-78,10],[-37,-8],[-78,37],[-198,-53],[-109,22],[-56,-31],[-27,18],[-12,32],[-28,17],[-68,-18],[-70,14],[-16,29],[3,81],[-33,79],[-85,78],[25,-113],[9,-132],[-11,-49],[-146,-133],[-4,-35],[-34,-39],[-35,0],[-36,-20],[-10,-39],[-31,-34],[-68,-9],[-22,-21],[-30,13],[-34,39],[-74,13],[-9,14],[35,78],[-22,67],[-35,54],[-3,39],[23,45],[52,37],[-12,31],[-41,-24],[-10,12],[5,49],[32,35],[15,75],[-79,122],[-19,69],[-1,57],[-12,10],[-51,-2],[-44,22],[-6,16],[31,12],[14,32],[51,13],[15,97],[-15,53],[-32,35],[-16,50],[-48,42],[-4,100],[-15,30],[-87,69],[-40,47],[-97,-5],[-90,32],[-11,55],[-70,0],[-21,-46],[-31,12],[-72,60],[-94,39],[-129,24],[-102,-23],[-71,11],[-91,108],[-82,29],[-13,50],[-46,8],[-14,53],[5,18],[28,16],[-6,17],[-43,28],[-41,66],[-38,30],[-66,88],[-34,56],[-63,20],[-9,33],[7,83],[-26,18],[-12,34],[-40,47],[-56,7],[-25,19],[-19,126],[11,33],[62,50],[9,25],[-40,88],[-10,103],[-65,90],[12,102],[-27,38],[-67,31],[-32,28],[-23,78],[-57,73],[-163,19],[-107,25],[-153,-22],[-107,33],[-39,-5],[-71,-105],[-113,-7],[-104,21],[-72,-16],[-37,10],[-70,-18],[-67,8],[-69,-14],[-78,-33],[-54,-3],[-63,1],[-29,16],[-35,-8],[-65,10],[-47,41],[-30,1],[-31,35],[-31,13],[-23,32],[81,76],[10,35],[-19,117],[-21,37],[-36,28],[-4,36],[108,101],[-18,79],[-90,70],[49,20],[54,-10],[87,17],[8,103],[15,53],[43,44],[47,18],[75,-1],[29,14],[44,46],[54,3],[62,47],[19,-1],[38,-29],[29,-1],[29,12],[77,-3],[52,37],[13,99],[-18,116],[25,73],[18,156],[57,189],[45,75],[-33,82],[-77,5],[-33,24],[-43,96],[102,154],[-9,74],[200,52],[41,51],[-21,32],[10,47],[-19,25],[8,68],[-20,44],[3,90],[170,-27],[39,29],[28,41],[39,19],[72,-4],[34,19],[61,72],[21,75],[5,94],[44,70],[3,38],[-26,163],[-100,314],[0,84],[89,47],[48,6],[68,-11],[37,16],[32,39],[36,6],[38,23],[74,112],[35,76],[65,51],[287,113],[68,-14],[34,-28],[44,-121],[32,-32],[123,-189],[68,-61],[103,-22]],[[11568,11113],[88,29],[27,41],[27,17],[41,2],[102,-27],[35,9],[47,39],[51,14],[60,53],[67,66],[25,65],[48,28],[54,-3],[62,-49],[90,-41],[104,27],[25,41],[53,29],[21,-24],[33,0],[30,-58],[37,-4],[30,13],[33,57],[51,-11],[45,18],[61,-45],[51,0],[99,124],[33,9],[20,-24],[47,-21],[18,-26],[15,-7],[33,9],[44,-21],[29,-38],[38,-4],[27,-16],[40,26],[35,3],[81,-49],[55,-56],[46,-19],[33,11],[17,-6],[25,-41],[44,-22],[37,4],[76,-56],[28,13],[36,-5],[32,-57],[46,13],[41,-25],[61,-16],[57,5],[26,-17],[29,12],[163,-29],[30,13],[11,30],[-16,28],[-5,40],[34,5],[64,46],[30,-11],[60,23],[40,73],[31,9],[31,34],[1,30],[17,21],[91,15],[99,56],[69,10],[0,13],[30,21],[31,-6],[29,15],[31,-4],[29,58],[44,-8],[6,17],[18,-24],[68,-11],[22,21],[63,14],[7,17],[85,23],[5,66],[-12,31],[10,33],[-34,3],[-43,90],[3,21],[19,25],[11,141],[58,73],[53,37],[-3,103],[18,95],[41,94],[41,46],[93,8],[45,-21],[223,7],[68,65],[31,-11],[57,6],[81,-24],[53,-36],[72,-1],[63,28],[-4,-112],[15,-23],[16,-84],[-10,-53],[-41,-32],[-53,-6],[-54,-28],[-79,-66],[-10,-37],[12,-55],[37,-62],[2,-88],[20,-62],[1,-115],[66,-102],[10,-49],[-17,-53],[30,-37],[33,9],[53,61],[26,51],[132,3],[89,90],[5,38],[-14,49],[13,28],[19,15],[80,20],[36,-9],[105,-78],[107,-45],[108,-3],[27,47],[34,4],[53,32],[56,-33],[84,-28],[86,-3],[107,-40],[105,52],[79,-15],[132,118],[225,154],[108,-13],[53,-22],[70,-56],[67,4],[66,-29],[55,1],[58,25],[108,-59],[56,1],[31,17],[27,48],[84,55],[25,28],[29,69],[25,9],[-14,-37],[45,-42],[7,-15],[-8,-21],[16,-15],[-22,-133],[11,-76],[-20,-43],[40,-28],[6,-19],[3,-209],[35,-64],[34,-140],[-17,-34],[-38,-15],[-24,-29],[-7,-41],[16,-91],[-51,-99],[-19,-88],[-31,-32],[37,-92],[5,-61],[41,-125],[-7,-20],[-27,-21],[-20,-91],[-10,-349],[4,-71],[43,-103],[84,-83],[-6,-18],[13,-46],[-30,-40],[32,-26],[6,-39],[-8,-81],[-72,-57],[-21,-52],[-26,-15],[-7,-29],[-30,-13],[-7,-30],[-17,-22],[6,-106],[-45,-87],[4,-71],[-31,-83],[-15,-134],[3,-20],[31,-26],[8,-23],[72,-39],[74,-81],[23,-74],[-3140,-23],[0,-5341],[-53,54],[-208,125],[-9,59],[-21,24],[3,39],[-49,42],[-23,46],[-6,53],[-22,22],[-38,0],[-11,12],[0,39],[-15,32],[11,31],[-57,33],[-41,2],[-66,69],[-42,118],[-49,41],[9,72],[-50,41],[-27,63],[-13,10],[-36,1],[-22,24],[-7,37],[9,105],[-26,66],[-29,14],[-18,27],[-75,11],[-46,44],[-35,10],[-53,61],[-46,158],[-53,35],[-75,-5],[-20,29],[12,53],[-14,4],[-27,-19],[-32,14],[-39,74],[-39,30],[-67,90],[-80,22],[-38,28],[-16,31],[-29,-14],[-38,-1],[-56,56],[-36,1],[-14,-32],[-17,-5],[-147,32],[-29,39],[-31,12],[-59,-30],[-51,12],[-74,-38],[-86,22],[-91,-40],[-141,35],[-118,-12],[-87,50],[-69,17],[-127,74],[-46,67],[-63,48],[-43,80],[-36,10],[-15,27],[-32,-11],[-16,6],[-1,42],[-35,-2],[-20,50],[-103,75],[-11,30],[-37,32],[-13,30],[-46,23],[-14,52],[-69,42],[-49,132],[-47,42],[-18,97],[-83,73],[-29,83],[-23,28],[-178,-40],[-68,24],[-50,-9],[-38,9],[-67,61],[-36,14],[-34,-12],[-82,-47],[2,-72],[52,-197],[-217,125],[-37,-3],[-153,-62],[-15,-2],[-44,32],[-18,0],[3,20],[-34,37],[0,28],[-36,36],[-2,53],[-30,18],[-36,79],[-7,56],[15,33],[-45,129],[16,51],[-6,17],[-77,118],[-11,56],[-27,41],[-69,45],[-11,45],[-26,21],[-24,-9],[-22,28],[-63,44],[-26,36],[-35,14],[-72,-29],[-35,14],[-147,115],[-71,39],[-103,-25],[-36,2],[-425,262],[-3,36],[-19,37],[53,92],[-11,47],[-48,75],[102,96],[122,46],[10,36],[-9,78],[-80,153],[57,76],[-20,45],[109,52],[14,74],[34,36],[39,12],[14,37],[-6,36],[-58,117],[-1,43],[38,35],[21,-37],[117,121],[71,41],[13,35],[-16,78],[122,142],[51,75],[10,39],[-13,79],[31,35],[159,157],[84,14],[38,33],[27,51],[38,31],[83,16],[27,36],[10,43],[-33,32],[2,39],[200,192],[30,42],[4,61],[-45,81],[-6,44],[14,40],[30,43],[34,19],[24,110],[25,38],[39,-18],[36,3],[23,37],[-6,36],[-33,31],[-7,36],[34,19],[107,5],[34,36],[13,36],[11,146],[15,35],[70,72],[31,50],[43,12]],[[48,2620],[24,-5],[5,-17],[-1,-61],[8,-15],[-13,-31],[19,-42],[-2,-97],[16,-26],[2,-53],[-41,43],[-65,189],[0,67],[22,33],[26,15],[0,0]],[[1347,7651],[107,-1],[71,-28],[109,-11],[71,-37],[79,-2],[65,-62],[34,-15],[133,66],[114,34],[27,76],[38,7],[69,-36],[117,-10],[105,-33],[34,-20],[10,-40],[-35,-78],[-7,-40],[11,-35],[87,-118],[47,-120],[37,-25],[69,42],[39,-8],[68,-44],[33,-8],[44,10],[28,-91],[67,-48],[11,-40],[-10,-38],[-68,-119],[-14,-52],[37,-79],[21,-80],[-25,-85],[15,-40],[36,-27],[35,20],[36,-18],[-12,-82],[15,-74],[6,-140],[-86,-125],[-8,-159],[-77,-193],[-92,-67],[-115,-54],[-112,-93],[-30,-43],[-74,-12],[-62,-72],[0,-46],[39,-120],[-64,-80],[-11,-41],[91,-115],[-12,-40],[-115,-70],[3,-40],[35,-34],[74,22],[45,-9],[5,-55],[-11,-45],[33,-42],[36,3],[38,28],[16,36],[43,-11],[24,-78],[-21,-82],[23,-38],[74,-61],[117,-47],[-10,-405],[8,-38],[74,-121],[-121,-229],[-57,-155],[15,-77],[62,-122],[-2,-36],[-34,-35],[-14,-37],[-40,-23],[-125,-152],[-29,-3],[-45,-45],[-17,24],[-25,-52],[-48,-3],[-35,-57],[-46,-7],[-25,-20],[-35,-58],[63,-64],[22,-38],[7,-39],[-55,-84],[-39,-28],[-35,-5],[-36,-37],[-31,-76],[12,-41],[32,-43],[222,-237],[42,-83],[7,-87],[14,-3],[-93,-19],[-29,-17],[-65,24],[-33,-3],[-17,34],[-16,-10],[-64,16],[-72,-30],[-45,7],[-128,-17],[-58,-58],[-42,-5],[-33,-37],[-32,-6],[-7,-32],[-44,-31],[-31,-6],[-26,-49],[-43,-11],[-104,-80],[-19,3],[-67,-31],[-62,-42],[-16,-36],[-36,0],[-22,-20],[-27,4],[-29,-15],[-49,0],[-15,12],[-57,-39],[-17,8],[-7,73],[-14,13],[-31,4],[-11,-23],[-18,1],[-16,-18],[-36,19],[-95,-34],[-31,12],[-33,-8],[-95,67],[-32,66],[-43,-9],[-46,8],[-40,25],[-27,-19],[-30,6],[-68,-32],[-84,-19],[-64,-40],[-37,-44],[-36,-16],[-36,8],[-25,-46],[-14,-6],[-33,-1],[-59,31],[1,375],[16,154],[30,106],[-17,169],[25,21],[-7,-15],[14,-1],[-12,-12],[-9,-68],[18,2],[22,28],[11,40],[17,125],[-11,46],[5,6],[7,3],[0,63],[-14,23],[14,14],[-13,38],[8,2],[10,235],[-56,550],[-1,68],[25,119],[-38,85],[-69,107],[-6,54],[29,92],[41,65],[13,4],[0,-14],[16,-8],[53,23],[38,-1],[-4,-10],[-34,7],[-32,-15],[2,-11],[22,-8],[38,3],[50,29],[21,52],[21,13],[26,117],[61,30],[44,47],[14,65],[24,41],[17,138],[-1,154],[20,74],[16,18],[2,183],[57,53],[22,1],[30,25],[23,-18],[20,23],[4,38],[-20,54],[-10,6],[-13,-19],[-26,1],[10,44],[14,44],[16,14],[16,59],[33,33],[-9,61],[12,43],[33,18],[18,82],[16,6],[-5,81],[16,22],[41,12],[25,75],[34,49],[-3,48],[-22,46],[39,51],[-7,66],[14,23],[10,72],[18,107],[26,58],[2,46],[15,4],[19,134],[-10,47],[26,42],[-8,31],[8,13],[-23,31],[1,41],[-31,47],[-5,40],[1,16],[18,-10],[27,14],[15,43],[-28,90],[13,71],[24,12],[23,33],[14,91],[-8,5],[3,31],[15,12],[5,-11],[23,25],[-13,73],[6,34],[112,18],[-11,-22],[37,-3],[27,59],[-15,7],[4,55],[8,42],[-7,33],[15,31],[-9,7],[14,83],[-7,31],[14,66],[-18,11],[2,29],[7,22],[26,18],[0,30],[6,24],[-17,7],[-6,17],[10,23],[0,0]],[[8298,17846],[-38,-18],[-72,-63]],[[8032,17482],[-103,22],[-68,61],[-123,189],[-32,32],[-44,121],[-34,28],[-68,14],[-287,-113],[-65,-51],[-35,-76],[-74,-112],[-38,-23],[-36,-6],[-32,-39],[-37,-16],[-68,11],[-48,-6],[-89,-47],[0,-84],[100,-314],[26,-163],[-3,-38],[-44,-70],[-5,-94],[-21,-75],[-61,-72],[-34,-19],[-72,4],[-39,-19],[-28,-41],[-39,-29],[-170,27],[-7,159],[-21,23],[-17,-3],[-7,-16],[-18,5],[-20,61],[0,17],[45,9],[0,15],[-56,32],[-31,36],[-141,-3],[-55,-54],[-90,-31],[-54,4],[-55,25],[-13,54],[5,55],[-26,41],[-45,26],[-187,-5],[-140,-35],[12,-87],[-33,-56],[-5,-41],[10,-12],[31,12],[33,-35],[-2,-19],[-33,-55],[-2,-103],[-12,-6],[-14,-43],[-29,-5],[-11,-35],[-40,-3],[-21,-70],[-85,11],[-80,-41],[-78,54],[-78,8],[-55,-55],[-16,-63],[-61,-72],[-75,-32],[-55,5],[-60,28],[-57,-10],[-20,65],[-28,92],[2,85],[20,76],[95,153],[10,37],[-6,109],[20,158],[-8,43],[-36,32],[-74,9],[-229,-51],[-108,12],[-75,47],[-73,22],[-34,26],[-119,160],[-34,25],[-26,38],[-33,13],[-34,31],[1,37],[-30,37],[-34,12],[-66,-7],[-143,13],[-35,-13],[-68,10],[-69,-7],[-64,18],[33,103],[45,20],[67,4],[48,62],[15,-3],[14,29],[-20,37],[-65,45],[-17,37],[0,36],[-62,65],[-2,41],[26,74],[92,112],[6,39],[-68,47],[-61,69],[-36,155],[-48,81],[19,17],[56,9],[70,-3],[14,-9],[51,8],[137,126],[185,51],[76,53],[66,19],[30,82],[28,38],[5,35],[90,63],[33,9],[110,-13],[103,49],[64,87],[107,-5],[107,22],[151,65],[173,293],[61,50],[83,122],[-119,85],[-27,36],[-1,129],[-19,76],[-38,75],[-126,181],[-14,51],[549,16],[626,-9],[222,11],[287,-17],[604,22],[209,-2],[30,-33],[60,-12],[105,28],[135,-65],[2,-39],[-18,-40],[4,-19],[22,-11],[-12,-28],[15,-63],[-14,-30],[6,-11],[39,7],[7,-11],[-11,-12],[-27,0],[-2,-17],[57,-19],[8,-16],[-5,-34],[21,5],[17,-22],[30,-3],[49,-43],[-1,-23],[15,-23],[-31,-68],[12,-39],[-14,-52],[24,-87],[-14,-28],[-40,9],[-2,-14],[23,-21],[-20,-47],[42,-7],[22,-26],[-32,-34],[36,-45],[-11,-44],[54,-45],[-21,-62],[4,-22],[38,-24],[27,-145],[11,-28],[46,-26],[9,-92],[54,-56],[7,-68],[29,-19],[31,9],[39,-36],[-6,-66],[16,-25],[-13,-59],[18,-24],[34,-9],[16,-61],[-30,-90],[-22,5],[-9,23],[-22,-12],[-2,-26],[35,-69],[5,-43],[26,-29],[-24,-30],[-2,-25],[54,-45],[23,-53],[3,-61],[38,4],[23,-38],[30,-10],[18,-26],[51,-5],[10,-19],[-3,-56]],[[1016,19989],[-16,-49],[-38,-3],[20,-7],[14,-1],[-10,-45],[-8,-12],[-21,7],[-22,-16],[-9,26],[5,47],[85,53],[0,0]],[[3562,20375],[80,-70],[63,29],[131,-4],[20,12],[84,-45],[98,11],[108,-23],[143,-8],[78,18],[132,-33],[160,48],[97,0],[14,-52],[126,-180],[38,-76],[20,-76],[1,-129],[26,-36],[119,-85],[-83,-122],[-61,-50],[-173,-293],[-151,-65],[-107,-22],[-107,5],[-64,-87],[-103,-49],[-110,13],[-33,-10],[-90,-62],[-5,-36],[-28,-38],[-30,-82],[-66,-18],[-76,-53],[-185,-52],[-137,-125],[-51,-9],[-14,10],[-70,2],[-56,-8],[-19,-18],[48,-81],[36,-155],[61,-68],[68,-47],[-6,-40],[-92,-112],[-25,-73],[2,-41],[61,-65],[0,-36],[17,-37],[66,-45],[20,-37],[-14,-29],[-16,3],[-48,-62],[-67,-5],[-45,-19],[-33,-103],[-147,-91],[-36,-4],[-29,14],[-47,-13],[-46,-42],[-29,3],[-26,-18],[-83,-12],[-36,-29],[-73,0],[-70,62],[-32,11],[-133,-39],[-33,-54],[-59,24],[-55,-55],[-60,-26],[-139,-30],[-33,51],[-11,70],[-1,14],[-49,101],[-11,56],[-34,41],[16,39],[-33,35],[-55,155],[-24,44],[-33,162],[-93,107],[-5,39],[10,38],[-9,28],[-12,88],[11,68],[-34,136],[3,57],[-37,61],[-3,13],[-70,86],[-18,49],[-284,332],[-10,51],[-84,134],[-163,372],[-168,262],[18,-1],[17,16],[18,32],[30,-8],[7,4],[-34,14],[3,18],[41,-6],[36,18],[47,-11],[1,1],[-10,12],[50,10],[34,-12],[15,-9],[-16,58],[137,41],[121,62],[122,13],[83,53],[112,8],[104,42],[206,120],[79,1],[36,-35],[31,-11],[94,42],[98,16],[171,-58],[35,41],[22,9],[171,2],[64,-16],[38,8],[394,-2],[101,32],[87,-4],[52,30],[0,0]]],"transform":{"scale":[0.032041788986698794,0.03004258308090784],"translate":[0.25021751000000014,0.29373999999995704]},"objects":{"angola":{"type":"GeometryCollection","geometries":[{"arcs":[[0]],"type":"Polygon","properties":{"id":"AO-BGO"}},{"arcs":[[1]],"type":"Polygon","properties":{"id":"AO-BGU"}},{"arcs":[[2]],"type":"Polygon","properties":{"id":"AO-BIE"}},{"arcs":[[3]],"type":"Polygon","properties":{"id":"AO-CAB"}},{"arcs":[[4]],"type":"Polygon","properties":{"id":"AO-CCU"}},{"arcs":[[5]],"type":"Polygon","properties":{"id":"AO-CNO"}},{"arcs":[[6]],"type":"Polygon","properties":{"id":"AO-CUS"}},{"arcs":[[7]],"type":"Polygon","properties":{"id":"AO-CNN"}},{"arcs":[[8]],"type":"Polygon","properties":{"id":"AO-HUA"}},{"arcs":[[9]],"type":"Polygon","properties":{"id":"AO-HUI"}},{"arcs":[[[10]],[[11]],[[12]]],"type":"MultiPolygon","properties":{"id":"AO-LUA"}},{"arcs":[[13]],"type":"Polygon","properties":{"id":"AO-LNO"}},{"arcs":[[14]],"type":"Polygon","properties":{"id":"AO-LSU"}},{"arcs":[[15,16,17,18]],"type":"Polygon","properties":{"id":"AO-MAL"}},{"arcs":[[19]],"type":"Polygon","properties":{"id":"AO-MOX"}},{"arcs":[[[20]],[[21]]],"type":"MultiPolygon","properties":{"id":"AO-NAM"}},{"arcs":[[-18,22,-16,23]],"type":"Polygon","properties":{"id":"AO-UIG"}},{"arcs":[[[24]],[[25]]],"type":"MultiPolygon","properties":{"id":"AO-ZAI"}}]}}}